ONEWEB-0094             
1 45450U 20020AC  24294.52562148  .00000416  00000+0  10383-2 0  9993
2 45450  87.9088 126.2920 0001555  89.0454 271.0856 13.17645580226681
ONEWEB-0087             
1 45451U 20020AD  24294.53193416 -.00000431  00000+0 -12520-2 0  9997
2 45451  87.8910 141.4781 0001665  91.3924 268.7395 13.11415361223335
ONEWEB-0082             
1 45452U 20020AE  24294.52868638 -.00000576  00000+0 -16598-2 0  9991
2 45452  87.8913 141.4884 0001708  82.2080 277.9242 13.11413255223426
ONEWEB-0050             
1 45453U 20020AF  24294.20530465  .00017587  00000+0  17409-2 0  9991
2 45453  88.0072 356.4761 0003144  47.0735 313.0758 14.91770447250242
ONEWEB-0034             
1 45454U 20020AG  24294.55074371  .00000049  00000+0  10173-3 0  9996
2 45454  87.8909 141.5042 0001656  83.2635 276.8681 13.11419150223345
ONEWEB-0060             
1 45455U 20020AH  24294.51695918 -.00000138  00000+0 -42638-3 0  9991
2 45455  87.8913 141.5294 0001403  82.3234 277.8053 13.11413622223291
ONEWEB-0086             
1 45456U 20020AJ  24294.49988372  .00000431  00000+0  11797-2 0  9993
2 45456  87.8906 141.5143 0001801  95.2802 264.8531 13.11414790223354
ONEWEB-0088             
1 45457U 20020AK  24294.55411408 -.00000293  00000+0 -86228-3 0  9992
2 45457  87.8902 141.4635 0001538  87.2653 272.8651 13.11417245223291
